FLOCK 4G-25             
1 62646U 25009AP  26068.74572546  .00010373  00000+0  38902-3 0  9990
2 62646  97.4049 151.4141 0000828 316.3151  43.8023 15.27424196 63734
STARLINK-35673          
1 66492U 25263H   26068.19405785  .00040572  00000+0  14749-2 0  9990
2 66492  43.0002 353.4564 0001627 281.1193  78.9475 15.27600433 18829
